start=new Date('2023-03-11T00:00:00.000Z').valueOf();
sats=[{"OBJECT_TYPE":"PAYLOAD","LAUNCH_DATE":"2020-03-18","MEAN_MOTION_DOT":"0.00028763","BSTAR":"0.00194150000000","OBJECT_NAME":"STARLINK-1308","TLE_LINE2":"2 45419  53.0559  41.1763 0001226  97.4406 262.6722 15.06409609164463","FILE":"3856975","TLE_LINE1":"1 45419U 20019BM  23069.93122760  .00028763  00000-0  19415-2 0  9993","ELEMENT_SET_NO":"999","NORAD_CAT_ID":"45419","PERIAPSIS":"546.335","OBJECT_ID":"2020-019BM","CLASSIFICATION_TYPE":"U","MEAN_MOTION":"15.06409609","DECAY_DATE":null,"MEAN_ELEMENT_THEORY":"SGP4","APOAPSIS":"548.033","EPHEMERIS_TYPE":"0","RA_OF_ASC_NODE":"41.1763","SEMIMAJOR_AXIS":"6925.319","INCLINATION":"53.0559","RCS_SIZE":"LARGE","MEAN_ANOMALY":"262.6722","EPOCH":"2023-03-10T22:20:58.064640","GP_ID":"227814089","PERIOD":"95.592","REF_FRAME":"TEME","COUNTRY_CODE":"US","REV_AT_EPOCH":"16446","ARG_OF_PERICENTER":"97.4406","TIME_SYSTEM":"UTC","ECCENTRICITY":"0.00012260","MEAN_MOTION_DDOT":"0.0000000000000","SITE":"AFETR","CENTER_NAME":"EARTH"},{"GP_ID":"227813100","PERIOD":"95.593","REF_FRAME":"TEME","MEAN_ANOMALY":"304.3885","EPOCH":"2023-03-10T21:35:51.354816","RCS_SIZE":"LARGE","CENTER_NAME":"EARTH","MEAN_MOTION_DDOT":"0.0000000000000","SITE":"AFETR","TIME_SYSTEM":"UTC","ECCENTRICITY":"0.00012060","COUNTRY_CODE":"US","REV_AT_EPOCH":"16008","ARG_OF_PERICENTER":"55.7218","OBJECT_NAME":"STARLINK-1329","MEAN_MOTION_DOT":"-0.00003501","BSTAR":"-0.00021633000000","OBJECT_TYPE":"PAYLOAD","LAUNCH_DATE":"2020-04-22","APOAPSIS":"548.096","EPHEMERIS_TYPE":"0","RA_OF_ASC_NODE":"341.3279","SEMIMAJOR_AXIS":"6925.395","INCLINATION":"53.0532","CLASSIFICATION_TYPE":"U","DECAY_DATE":null,"MEAN_MOTION":"15.06384705","MEAN_ELEMENT_THEORY":"SGP4","OBJECT_ID":"2020-025A","TLE_LINE2":"2 45531  53.0532 341.3279 0001206  55.7218 304.3885 15.06384705160089","TLE_LINE1":"1 45531U 20025A   23069.89989994 -.00003501  00000-0 -21633-3 0  9991","ELEMENT_SET_NO":"999","FILE":"3856975","NORAD_CAT_ID":"45531","PERIAPSIS":"546.425"},{"EPOCH":"2023-03-10T18:40:41.760768","MEAN_ANOMALY":"269.8190","PERIOD":"95.593","REF_FRAME":"TEME","GP_ID":"227813851","RCS_SIZE":"LARGE","SITE":"AFETR","MEAN_MOTION_DDOT":"0.0000000000000","CENTER_NAME":"EARTH","ARG_OF_PERICENTER":"90.3061","COUNTRY_CODE":"US","REV_AT_EPOCH":"16006","ECCENTRICITY":"0.00022830","TIME_SYSTEM":"UTC","OBJECT_NAME":"STARLINK-1338","LAUNCH_DATE":"2020-04-22","OBJECT_TYPE":"PAYLOAD","BSTAR":"-0.00027924000000","MEAN_MOTION_DOT":"-0.00004437","DECAY_DATE":null,"MEAN_MOTION":"15.06385774","MEAN_ELEMENT_THEORY":"SGP4","CLASSIFICATION_TYPE":"U","RA_OF_ASC_NODE":"341.8666","SEMIMAJOR_AXIS":"6925.392","INCLINATION":"53.0554","APOAPSIS":"548.838","EPHEMERIS_TYPE":"0","NORAD_CAT_ID":"45532","PERIAPSIS":"545.676","TLE_LINE2":"2 45532  53.0554 341.8666 0002283  90.3061 269.8190 15.06385774160065","TLE_LINE1":"1 45532U 20025B   23069.77826112 -.00004437  00000-0 -27924-3 0  9999","ELEMENT_SET_NO":"999","FILE":"3856975","OBJECT_ID":"2020-025B"},{"GP_ID":"227813603","PERIOD":"95.593","REF_FRAME":"TEME","MEAN_ANOMALY":"269.7258","EPOCH":"2023-03-10T18:56:36.988800","RCS_SIZE":"LARGE","CENTER_NAME":"EARTH","MEAN_MOTION_DDOT":"0.0000000000000","SITE":"AFETR","TIME_SYSTEM":"UTC","ECCENTRICITY":"0.00010750","REV_AT_EPOCH":"16006","COUNTRY_CODE":"US","ARG_OF_PERICENTER":"90.3854","OBJECT_NAME":"STARLINK-1341","MEAN_MOTION_DOT":"-0.00002517","BSTAR":"-0.00015017000000","OBJECT_TYPE":"PAYLOAD","LAUNCH_DATE":"2020-04-22","APOAPSIS":"547.994","EPHEMERIS_TYPE":"0","SEMIMAJOR_AXIS":"6925.384","RA_OF_ASC_NODE":"341.8185","INCLINATION":"53.0556","CLASSIFICATION_TYPE":"U","MEAN_MOTION":"15.06388324","DECAY_DATE":null,"MEAN_ELEMENT_THEORY":"SGP4","OBJECT_ID":"2020-025D","TLE_LINE2":"2 45534  53.0556 341.8185 0001075  90.3854 269.7258 15.06388324160061","TLE_LINE1":"1 45534U 20025D   23069.78931700 -.00002517  00000-0 -15017-3 0  9999","FILE":"3856975","ELEMENT_SET_NO":"999","NORAD_CAT_ID":"45534","PERIAPSIS":"546.505"},{"REV_AT_EPOCH":"16006","COUNTRY_CODE":"US","ARG_OF_PERICENTER":"68.1377","TIME_SYSTEM":"UTC","ECCENTRICITY":"0.00015630","MEAN_MOTION_DDOT":"0.0000000000000","SITE":"AFETR","CENTER_NAME":"EARTH","RCS_SIZE":"LARGE","MEAN_ANOMALY":"291.9778","EPOCH":"2023-03-10T17:47:37.614912","GP_ID":"227812351","REF_FRAME":"TEME","PERIOD":"95.594","TLE_LINE1":"1 45535U 20025E   23069.74140758 -.00010361  00000-0 -67810-3 0  9995","ELEMENT_SET_NO":"999","FILE":"3856975","TLE_LINE2":"2 45535  53.0534 342.0401 0001563  68.1377 291.9778 15.06376046160069","PERIAPSIS":"546.205","NORAD_CAT_ID":"45535","OBJECT_ID":"2020-025E","CLASSIFICATION_TYPE":"U","MEAN_ELEMENT_THEORY":"SGP4","MEAN_MOTION":"15.06376046","DECAY_DATE":null,"EPHEMERIS_TYPE":"0","APOAPSIS":"548.369","INCLINATION":"53.0534","SEMIMAJOR_AXIS":"6925.422","RA_OF_ASC_NODE":"342.0401","OBJECT_TYPE":"PAYLOAD","LAUNCH_DATE":"2020-04-22","MEAN_MOTION_DOT":"-0.00010361","BSTAR":"-0.00067810000000","OBJECT_NAME":"STARLINK-1350"},{"LAUNCH_DATE":"2020-04-22","OBJECT_TYPE":"PAYLOAD","BSTAR":"-0.00132080000000","MEAN_MOTION_DOT":"-0.00019881","OBJECT_NAME":"STARLINK-1352","NORAD_CAT_ID":"45536","PERIAPSIS":"546.615","TLE_LINE2":"2 45536  53.0553 342.0150 0001021  66.4346 293.6750 15.06364531160052","TLE_LINE1":"1 45536U 20025F   23069.74508824 -.00019881  00000-0 -13208-2 0  9995","FILE":"3856975","ELEMENT_SET_NO":"999","OBJECT_ID":"2020-025F","MEAN_MOTION":"15.06364531","DECAY_DATE":null,"MEAN_ELEMENT_THEORY":"SGP4","CLASSIFICATION_TYPE":"U","SEMIMAJOR_AXIS":"6925.457","RA_OF_ASC_NODE":"342.0150","INCLINATION":"53.0553","APOAPSIS":"548.029","EPHEMERIS_TYPE":"0","RCS_SIZE":"LARGE","EPOCH":"2023-03-10T17:52:55.623936","MEAN_ANOMALY":"293.6750","PERIOD":"95.594","REF_FRAME":"TEME","GP_ID":"227812601","ARG_OF_PERICENTER":"66.4346","COUNTRY_CODE":"US","REV_AT_EPOCH":"16005","ECCENTRICITY":"0.00010210","TIME_SYSTEM":"UTC","SITE":"AFETR","MEAN_MOTION_DDOT":"0.0000000000000","CENTER_NAME":"EARTH"},{"OBJECT_TYPE":"PAYLOAD","LAUNCH_DATE":"2020-04-22","MEAN_MOTION_DOT":"-0.00004651","BSTAR":"-0.00029367000000","OBJECT_NAME":"STARLINK-1362","TLE_LINE2":"2 45538  53.0540 341.3048 0000765 115.4490 244.6578 15.06387742160083","FILE":"3856975","TLE_LINE1":"1 45538U 20025H   23069.90358244 -.00004651  00000-0 -29367-3 0  9997","ELEMENT_SET_NO":"999","NORAD_CAT_ID":"45538","PERIAPSIS":"546.721","OBJECT_ID":"2020-025H","CLASSIFICATION_TYPE":"U","MEAN_MOTION":"15.06387742","DECAY_DATE":null,"MEAN_ELEMENT_THEORY":"SGP4","APOAPSIS":"547.781","EPHEMERIS_TYPE":"0","RA_OF_ASC_NODE":"341.3048","SEMIMAJOR_AXIS":"6925.386","INCLINATION":"53.0540","RCS_SIZE":"LARGE","MEAN_ANOMALY":"244.6578","EPOCH":"2023-03-10T21:41:09.522816","GP_ID":"227813353","PERIOD":"95.593","REF_FRAME":"TEME","REV_AT_EPOCH":"16008","COUNTRY_CODE":"US","ARG_OF_PERICENTER":"115.4490","TIME_SYSTEM":"UTC","ECCENTRICITY":"0.00007650","MEAN_MOTION_DDOT":"0.0000000000000","SITE":"AFETR","CENTER_NAME":"EARTH"},{"APOAPSIS":"548.088","EPHEMERIS_TYPE":"0","RA_OF_ASC_NODE":"342.0041","SEMIMAJOR_AXIS":"6925.357","INCLINATION":"53.0541","CLASSIFICATION_TYPE":"U","DECAY_DATE":null,"MEAN_MOTION":"15.06397218","MEAN_ELEMENT_THEORY":"SGP4","OBJECT_ID":"2020-025K","TLE_LINE2":"2 45540  53.0541 342.0041 0001251  81.2872 278.8258 15.06397218160053","ELEMENT_SET_NO":"999","TLE_LINE1":"1 45540U 20025K   23069.74877111  .00000850  00000-0  75947-4 0  9992","FILE":"3856975","NORAD_CAT_ID":"45540","PERIAPSIS":"546.356","OBJECT_NAME":"STARLINK-1368","MEAN_MOTION_DOT":"0.00000850","BSTAR":"0.00007594700000","OBJECT_TYPE":"PAYLOAD","LAUNCH_DATE":"2020-04-22","CENTER_NAME":"EARTH","MEAN_MOTION_DDOT":"0.0000000000000","SITE":"AFETR","TIME_SYSTEM":"UTC","ECCENTRICITY":"0.00012510","COUNTRY_CODE":"US","REV_AT_EPOCH":"16005","ARG_OF_PERICENTER":"81.2872","GP_ID":"227814101","PERIOD":"95.592","REF_FRAME":"TEME","MEAN_ANOMALY":"278.8258","EPOCH":"2023-03-10T17:58:13.823904","RCS_SIZE":"LARGE"},{"OBJECT_NAME":"STARLINK-1369","MEAN_MOTION_DOT":"0.00009734","BSTAR":"0.00067152000000","OBJECT_TYPE":"PAYLOAD","LAUNCH_DATE":"2020-04-22","APOAPSIS":"548.796","EPHEMERIS_TYPE":"0","RA_OF_ASC_NODE":"341.9895","SEMIMAJOR_AXIS":"6925.361","INCLINATION":"53.0528","CLASSIFICATION_TYPE":"U","MEAN_MOTION":"15.06396011","DECAY_DATE":null,"MEAN_ELEMENT_THEORY":"SGP4","OBJECT_ID":"2020-025L","TLE_LINE2":"2 45541  53.0528 341.9895 0002268  77.0718 283.0525 15.06396011160050","TLE_LINE1":"1 45541U 20025L   23069.75246319  .00009734  00000-0  67152-3 0  9992","FILE":"3856975","ELEMENT_SET_NO":"999","NORAD_CAT_ID":"45541","PERIAPSIS":"545.655","GP_ID":"227812851","PERIOD":"95.592","REF_FRAME":"TEME","MEAN_ANOMALY":"283.0525","EPOCH":"2023-03-10T18:03:32.819616","RCS_SIZE":"LARGE","CENTER_NAME":"EARTH","MEAN_MOTION_DDOT":"0.0000000000000","SITE":"AFETR","TIME_SYSTEM":"UTC","ECCENTRICITY":"0.00022680","REV_AT_EPOCH":"16005","COUNTRY_CODE":"US","ARG_OF_PERICENTER":"77.0718"},{"RCS_SIZE":"LARGE","REF_FRAME":"TEME","PERIOD":"95.594","GP_ID":"227813101","EPOCH":"2023-03-10T20:26:50.989056","MEAN_ANOMALY":"286.5554","ECCENTRICITY":"0.00010640","TIME_SYSTEM":"UTC","ARG_OF_PERICENTER":"73.5552","REV_AT_EPOCH":"16007","COUNTRY_CODE":"US","CENTER_NAME":"EARTH","SITE":"AFETR","MEAN_MOTION_DDOT":"0.0000000000000","BSTAR":"-0.00016429000000","MEAN_MOTION_DOT":"-0.00002726","LAUNCH_DATE":"2020-04-22","OBJECT_TYPE":"PAYLOAD","OBJECT_NAME":"STARLINK-1371","OBJECT_ID":"2020-025M","PERIAPSIS":"546.559","NORAD_CAT_ID":"45542","TLE_LINE1":"1 45542U 20025M   23069.85197904 -.00002726  00000-0 -16429-3 0  9996","ELEMENT_SET_NO":"999","FILE":"3856975","TLE_LINE2":"2 45542  53.0537 341.5426 0001064  73.5552 286.5554 15.06373135160071","INCLINATION":"53.0537","RA_OF_ASC_NODE":"341.5426","SEMIMAJOR_AXIS":"6925.431","EPHEMERIS_TYPE":"0","APOAPSIS":"548.033","MEAN_ELEMENT_THEORY":"SGP4","MEAN_MOTION":"15.06373135","DECAY_DATE":null,"CLASSIFICATION_TYPE":"U"}];
